{
  "type": "FeatureCollection",
  "features": [
    {
      "type": "Feature",
      "properties": {
        "norad_id": 40889,
        "name": "GSAT0205 (GALILEO 9)",
        "group": "galileo",
        "lat": -54.94906752951044,
        "lon": 132.9832267231995,
        "alt_km": 23239.847094876306,
        "timestamp": "2025-12-09T14:52:26.424811+00:00",
        "meta_object_name": "GSAT0205 (GALILEO 9)",
        "meta_object_id": "2015-045A",
        "meta_epoch": "2025-12-06T20:05:28.161600",
        "meta_mean_motion": 1.70472973,
        "meta_eccentricity": 0.00059315,
        "meta_inclination": 55.0055,
        "meta_ra_of_asc_node": 226.9215,
        "meta_arg_of_pericenter": 39.3036,
        "meta_mean_anomaly": 320.836,
        "meta_ephemeris_type": 0,
        "meta_classification_type": "U",
        "meta_norad_cat_id": 40889,
        "meta_element_set_no": 999,
        "meta_rev_at_epoch": 6373,
        "meta_bstar": 0,
        "meta_mean_motion_dot": 2.8e-07,
        "meta_mean_motion_ddot": 0,
        "tle_line1": "1 40889U 15045A   25340.83713150  .00000028  00000+0  00000+0 0  9994",
        "tle_line2": "2 40889  55.0055 226.9215 0005931  39.3036 320.8360  1.70472973 63731"
      },
      "geometry": {
        "type": "Point",
        "coordinates": [
          132.9832267231995,
          -54.94906752951044
        ]
      }
    },
    {
      "type": "Feature",
      "properties": {
        "norad_id": 40890,
        "name": "GSAT0206 (GALILEO 10)",
        "group": "galileo",
        "lat": 37.18706673298319,
        "lon": 14.772413738751112,
        "alt_km": 23219.731298549006,
        "timestamp": "2025-12-09T14:52:26.424823+00:00",
        "meta_object_name": "GSAT0206 (GALILEO 10)",
        "meta_object_id": "2015-045B",
        "meta_epoch": "2025-12-08T05:32:31.943328",
        "meta_mean_motion": 1.70473105,
        "meta_eccentricity": 0.0003529,
        "meta_inclination": 55.0039,
        "meta_ra_of_asc_node": 226.878,
        "meta_arg_of_pericenter": 31.5182,
        "meta_mean_anomaly": 328.5941,
        "meta_ephemeris_type": 0,
        "meta_classification_type": "U",
        "meta_norad_cat_id": 40890,
        "meta_element_set_no": 999,
        "meta_rev_at_epoch": 6378,
        "meta_bstar": 0,
        "meta_mean_motion_dot": 1.8e-07,
        "meta_mean_motion_ddot": 0,
        "tle_line1": "1 40890U 15045B   25342.23092527  .00000018  00000+0  00000+0 0  9999",
        "tle_line2": "2 40890  55.0039 226.8780 0003529  31.5182 328.5941  1.70473105 63781"
      },
      "geometry": {
        "type": "Point",
        "coordinates": [
          14.772413738751112,
          37.18706673298319
        ]
      }
    },
    {
      "type": "Feature",
      "properties": {
        "norad_id": 41174,
        "name": "GSAT0209 (GALILEO 12)",
        "group": "galileo",
        "lat": 23.756691183131416,
        "lon": 123.91539044516931,
        "alt_km": 23213.49529837072,
        "timestamp": "2025-12-09T14:52:26.424834+00:00",
        "meta_object_name": "GSAT0209 (GALILEO 12)",
        "meta_object_id": "2015-079A",
        "meta_epoch": "2025-12-08T09:34:38.512704",
        "meta_mean_motion": 1.70474355,
        "meta_eccentricity": 0.00023972,
        "meta_inclination": 55.7104,
        "meta_ra_of_asc_node": 106.5001,
        "meta_arg_of_pericenter": 353.8677,
        "meta_mean_anomaly": 6.0907,
        "meta_ephemeris_type": 0,
        "meta_classification_type": "U",
        "meta_norad_cat_id": 41174,
        "meta_element_set_no": 999,
        "meta_rev_at_epoch": 6152,
        "meta_bstar": 0,
        "meta_mean_motion_dot": 1e-07,
        "meta_mean_motion_ddot": 0,
        "tle_line1": "1 41174U 15079A   25342.39905686  .00000010  00000+0  00000+0 0  9990",
        "tle_line2": "2 41174  55.7104 106.5001 0002397 353.8677   6.0907  1.70474355 61526"
      },
      "geometry": {
        "type": "Point",
        "coordinates": [
          123.91539044516931,
          23.756691183131416
        ]
      }
    },
    {
      "type": "Feature",
      "properties": {
        "norad_id": 41175,
        "name": "GSAT0208 (GALILEO 11)",
        "group": "galileo",
        "lat": -52.608641349665874,
        "lon": -10.43653160003163,
        "alt_km": 23229.705526615344,
        "timestamp": "2025-12-09T14:52:26.424846+00:00",
        "meta_object_name": "GSAT0208 (GALILEO 11)",
        "meta_object_id": "2015-079B",
        "meta_epoch": "2025-12-08T14:51:40.201920",
        "meta_mean_motion": 1.70474231,
        "meta_eccentricity": 0.00018593,
        "meta_inclination": 55.7088,
        "meta_ra_of_asc_node": 106.4912,
        "meta_arg_of_pericenter": 3.1611,
        "meta_mean_anomaly": 356.8026,
        "meta_ephemeris_type": 0,
        "meta_classification_type": "U",
        "meta_norad_cat_id": 41175,
        "meta_element_set_no": 999,
        "meta_rev_at_epoch": 6194,
        "meta_bstar": 0,
        "meta_mean_motion_dot": 1e-07,
        "meta_mean_motion_ddot": 0,
        "tle_line1": "1 41175U 15079B   25342.61921530  .00000010  00000+0  00000+0 0  9992",
        "tle_line2": "2 41175  55.7088 106.4912 0001859   3.1611 356.8026  1.70474231 61940"
      },
      "geometry": {
        "type": "Point",
        "coordinates": [
          -10.43653160003163,
          -52.608641349665874
        ]
      }
    },
    {
      "type": "Feature",
      "properties": {
        "norad_id": 41549,
        "name": "GSAT0211 (GALILEO 14)",
        "group": "galileo",
        "lat": 1.656518806906659,
        "lon": 45.76524364947804,
        "alt_km": 23233.74757633803,
        "timestamp": "2025-12-09T14:52:26.424857+00:00",
        "meta_object_name": "GSAT0211 (GALILEO 14)",
        "meta_object_id": "2016-030A",
        "meta_epoch": "2025-12-07T13:40:58.264320",
        "meta_mean_motion": 1.70472997,
        "meta_eccentricity": 0.00040128,
        "meta_inclination": 55.154,
        "meta_ra_of_asc_node": 226.9659,
        "meta_arg_of_pericenter": 14.4678,
        "meta_mean_anomaly": 345.6377,
        "meta_ephemeris_type": 0,
        "meta_classification_type": "U",
        "meta_norad_cat_id": 41549,
        "meta_element_set_no": 999,
        "meta_rev_at_epoch": 5940,
        "meta_bstar": 0,
        "meta_mean_motion_dot": 2.3e-07,
        "meta_mean_motion_ddot": 0,
        "tle_line1": "1 41549U 16030A   25341.57011880  .00000023  00000+0  00000+0 0  9991",
        "tle_line2": "2 41549  55.1540 226.9659 0004012  14.4678 345.6377  1.70472997 59400"
      },
      "geometry": {
        "type": "Point",
        "coordinates": [
          45.76524364947804,
          1.656518806906659
        ]
      }
    },
    {
      "type": "Feature",
      "properties": {
        "norad_id": 41550,
        "name": "GSAT0210 (GALILEO 13)",
        "group": "galileo",
        "lat": 16.252451767283162,
        "lon": -121.3751906143909,
        "alt_km": 23223.22541940831,
        "timestamp": "2025-12-09T14:52:26.424869+00:00",
        "meta_object_name": "GSAT0210 (GALILEO 13)",
        "meta_object_id": "2016-030B",
        "meta_epoch": "2025-12-09T00:00:58.855680",
        "meta_mean_motion": 1.70473614,
        "meta_eccentricity": 0.00013663,
        "meta_inclination": 55.1527,
        "meta_ra_of_asc_node": 226.9246,
        "meta_arg_of_pericenter": 244.5421,
        "meta_mean_anomaly": 115.531,
        "meta_ephemeris_type": 0,
        "meta_classification_type": "U",
        "meta_norad_cat_id": 41550,
        "meta_element_set_no": 999,
        "meta_rev_at_epoch": 5942,
        "meta_bstar": 0,
        "meta_mean_motion_dot": 1.3e-07,
        "meta_mean_motion_ddot": 0,
        "tle_line1": "1 41550U 16030B   25343.00068120  .00000013  00000+0  00000+0 0  9991",
        "tle_line2": "2 41550  55.1527 226.9246 0001366 244.5421 115.5310  1.70473614 59420"
      },
      "geometry": {
        "type": "Point",
        "coordinates": [
          -121.3751906143909,
          16.252451767283162
        ]
      }
    },
    {
      "type": "Feature",
      "properties": {
        "norad_id": 41859,
        "name": "GSAT0207 (GALILEO 15)",
        "group": "galileo",
        "lat": -23.638254060659257,
        "lon": -56.0924681229598,
        "alt_km": 23228.0426787564,
        "timestamp": "2025-12-09T14:52:26.424880+00:00",
        "meta_object_name": "GSAT0207 (GALILEO 15)",
        "meta_object_id": "2016-069A",
        "meta_epoch": "2025-12-06T22:22:57.829728",
        "meta_mean_motion": 1.70474256,
        "meta_eccentricity": 0.00021753,
        "meta_inclination": 55.3787,
        "meta_ra_of_asc_node": 106.4111,
        "meta_arg_of_pericenter": 324.2379,
        "meta_mean_anomaly": 35.7022,
        "meta_ephemeris_type": 0,
        "meta_classification_type": "U",
        "meta_norad_cat_id": 41859,
        "meta_element_set_no": 999,
        "meta_rev_at_epoch": 5612,
        "meta_bstar": 0,
        "meta_mean_motion_dot": 7e-08,
        "meta_mean_motion_ddot": 0,
        "tle_line1": "1 41859U 16069A   25340.93261377  .00000007  00000+0  00000+0 0  9996",
        "tle_line2": "2 41859  55.3787 106.4111 0002175 324.2379  35.7022  1.70474256 56122"
      },
      "geometry": {
        "type": "Point",
        "coordinates": [
          -56.0924681229598,
          -23.638254060659257
        ]
      }
    }
  ]
}